[
    {
        "Altitude(m)": 707176.9238179504,
        "Argument of Periapsis(deg)": 0.0,
        "Eccentricity": 0.0,
        "Inclination(deg)": 45.0,
        "Latitude(deg)": 44.572795504708935,
        "Longitude(deg)": -146.474425474804,
        "Mean Anomaly(deg)": 81.8182,
        "RAAN(deg)": 235.0,
        "Satellite Name": "Constellation 1 1039",
        "Satellite Number": 1039,
        "Semi-Major Axis(m)": 7083131.272910544,
        "Time(s)": 0
    },
    {
        "Altitude(m)": 707178.8608091247,
        "Argument of Periapsis(deg)": 5.994800624540561e-05,
        "Eccentricity": 0.0,
        "Inclination(deg)": 45.0,
        "Latitude(deg)": 44.5813437975566,
        "Longitude(deg)": -146.39433883759173,
        "Mean Anomaly(deg)": 81.8789011402499,
        "RAAN(deg)": 234.99994341083442,
        "Satellite Name": "Constellation 1 1039",
        "Satellite Number": 1039,
        "Semi-Major Axis(m)": 7083131.272910544,
        "Time(s)": 1
    },
    {
        "Altitude(m)": 707180.783921055,
        "Argument of Periapsis(deg)": 0.00011989601249081122,
        "Eccentricity": 0.0,
        "Inclination(deg)": 45.0,
        "Latitude(deg)": 44.58983001809794,
        "Longitude(deg)": -146.3142276293162,
        "Mean Anomaly(deg)": 81.93960228049983,
        "RAAN(deg)": 234.99988682166887,
        "Satellite Name": "Constellation 1 1039",
        "Satellite Number": 1039,
        "Semi-Major Axis(m)": 7083131.272910544,
        "Time(s)": 2
    },
    {
        "Altitude(m)": 707182.6931424944,
        "Argument of Periapsis(deg)": 0.00017984401873621686,
        "Eccentricity": 0.0,
        "Inclination(deg)": 45.0,
        "Latitude(deg)": 44.59825413022336,
        "Longitude(deg)": -146.23409201475155,
        "Mean Anomaly(deg)": 82.00030342074972,
        "RAAN(deg)": 234.99983023250326,
        "Satellite Name": "Constellation 1 1039",
        "Satellite Number": 1039,
        "Semi-Major Axis(m)": 7083131.272910544,
        "Time(s)": 3
    },
    {
        "Altitude(m)": 707184.588462287,
        "Argument of Periapsis(deg)": 0.00023979202498162244,
        "Eccentricity": 0.0,
        "Inclination(deg)": 45.0,
        "Latitude(deg)": 44.606616098061416,
        "Longitude(deg)": -146.15393215907977,
        "Mean Anomaly(deg)": 82.0610045609996,
        "RAAN(deg)": 234.9997736433377,
        "Satellite Name": "Constellation 1 1039",
        "Satellite Number": 1039,
        "Semi-Major Axis(m)": 7083131.272910544,
        "Time(s)": 4
    },
    {
        "Altitude(m)": 707186.4698693512,
        "Argument of Periapsis(deg)": 0.00029974003122702807,
        "Eccentricity": 0.0,
        "Inclination(deg)": 45.0,
        "Latitude(deg)": 44.614915885979485,
        "Longitude(deg)": -146.07374822788952,
        "Mean Anomaly(deg)": 82.12170570124948,
        "RAAN(deg)": 234.99971705417215,
        "Satellite Name": "Constellation 1 1039",
        "Satellite Number": 1039,
        "Semi-Major Axis(m)": 7083131.272910544,
        "Time(s)": 5
    },
    {
        "Altitude(m)": 707188.3373526891,
        "Argument of Periapsis(deg)": 0.00035968803747243373,
        "Eccentricity": 0.0,
        "Inclination(deg)": 45.0,
        "Latitude(deg)": 44.623153458584625,
        "Longitude(deg)": -145.99354038717334,
        "Mean Anomaly(deg)": 82.18240684149943,
        "RAAN(deg)": 234.99966046500657,
        "Satellite Name": "Constellation 1 1039",
        "Satellite Number": 1039,
        "Semi-Major Axis(m)": 7083131.272910544,
        "Time(s)": 6
    },
    {
        "Altitude(m)": 707190.1909013909,
        "Argument of Periapsis(deg)": 0.00041963604371783933,
        "Eccentricity": 0.0,
        "Inclination(deg)": 45.0,
        "Latitude(deg)": 44.631328780724296,
        "Longitude(deg)": -145.91330897142234,
        "Mean Anomaly(deg)": 82.24310798174932,
        "RAAN(deg)": 234.99960387584102,
        "Satellite Name": "Constellation 1 1039",
        "Satellite Number": 1039,
        "Semi-Major Axis(m)": 7083131.272910544,
        "Time(s)": 7
    },
    {
        "Altitude(m)": 707192.0305046212,
        "Argument of Periapsis(deg)": 0.0004795840499632449,
        "Eccentricity": 0.0,
        "Inclination(deg)": 45.0,
        "Latitude(deg)": 44.63944181748616,
        "Longitude(deg)": -145.8330538112363,
        "Mean Anomaly(deg)": 82.3038091219992,
        "RAAN(deg)": 234.9995472866754,
        "Satellite Name": "Constellation 1 1039",
        "Satellite Number": 1039,
        "Semi-Major Axis(m)": 7083131.272910544,
        "Time(s)": 8
    },
    {
        "Altitude(m)": 707193.8561516324,
        "Argument of Periapsis(deg)": 0.0005395320562086505,
        "Eccentricity": 0.0,
        "Inclination(deg)": 45.0,
        "Latitude(deg)": 44.64749253420032,
        "Longitude(deg)": -145.7527752419023,
        "Mean Anomaly(deg)": 82.36451026224908,
        "RAAN(deg)": 234.99949069750986,
        "Satellite Name": "Constellation 1 1039",
        "Satellite Number": 1039,
        "Semi-Major Axis(m)": 7083131.272910544,
        "Time(s)": 9
    },
    {
        "Altitude(m)": 707195.6678317563,
        "Argument of Periapsis(deg)": 0.0005994800624540561,
        "Eccentricity": 0.0,
        "Inclination(deg)": 45.0,
        "Latitude(deg)": 44.655480896438945,
        "Longitude(deg)": -145.67247343100513,
        "Mean Anomaly(deg)": 82.42521140249902,
        "RAAN(deg)": 234.99943410834427,
        "Satellite Name": "Constellation 1 1039",
        "Satellite Number": 1039,
        "Semi-Major Axis(m)": 7083131.272910544,
        "Time(s)": 10
    },
    {
        "Altitude(m)": 707197.4655344085,
        "Argument of Periapsis(deg)": 0.0006594280686994618,
        "Eccentricity": 0.0,
        "Inclination(deg)": 45.0,
        "Latitude(deg)": 44.663406870017255,
        "Longitude(deg)": -145.59214854652177,
        "Mean Anomaly(deg)": 82.48591254274892,
        "RAAN(deg)": 234.99937751917872,
        "Satellite Name": "Constellation 1 1039",
        "Satellite Number": 1039,
        "Semi-Major Axis(m)": 7083131.272910544,
        "Time(s)": 11
    },
    {
        "Altitude(m)": 707199.2492490856,
        "Argument of Periapsis(deg)": 0.0007193760749448675,
        "Eccentricity": 0.0,
        "Inclination(deg)": 45.0,
        "Latitude(deg)": 44.67127042099406,
        "Longitude(deg)": -145.51180075681864,
        "Mean Anomaly(deg)": 82.5466136829988,
        "RAAN(deg)": 234.99932093001317,
        "Satellite Name": "Constellation 1 1039",
        "Satellite Number": 1039,
        "Semi-Major Axis(m)": 7083131.272910544,
        "Time(s)": 12
    },
    {
        "Altitude(m)": 707201.0189653686,
        "Argument of Periapsis(deg)": 0.000779324081190273,
        "Eccentricity": 0.0,
        "Inclination(deg)": 45.0,
        "Latitude(deg)": 44.679071515672625,
        "Longitude(deg)": -145.43143023064957,
        "Mean Anomaly(deg)": 82.60731482324874,
        "RAAN(deg)": 234.99926434084762,
        "Satellite Name": "Constellation 1 1039",
        "Satellite Number": 1039,
        "Semi-Major Axis(m)": 7083131.272910544,
        "Time(s)": 13
    },
    {
        "Altitude(m)": 707202.774672921,
        "Argument of Periapsis(deg)": 0.0008392720874356787,
        "Eccentricity": 0.0,
        "Inclination(deg)": 45.0,
        "Latitude(deg)": 44.68681012060117,
        "Longitude(deg)": -145.351037137153,
        "Mean Anomaly(deg)": 82.66801596349862,
        "RAAN(deg)": 234.999207751682,
        "Satellite Name": "Constellation 1 1039",
        "Satellite Number": 1039,
        "Semi-Major Axis(m)": 7083131.272910544,
        "Time(s)": 14
    },
    {
        "Altitude(m)": 707204.5163614887,
        "Argument of Periapsis(deg)": 0.0008992200936810842,
        "Eccentricity": 0.0,
        "Inclination(deg)": 45.0,
        "Latitude(deg)": 44.69448620257398,
        "Longitude(deg)": -145.27062181394663,
        "Mean Anomaly(deg)": 82.72871710374845,
        "RAAN(deg)": 234.99915116251643,
        "Satellite Name": "Constellation 1 1039",
        "Satellite Number": 1039,
        "Semi-Major Axis(m)": 7083131.272910544,
        "Time(s)": 15
    },
    {
        "Altitude(m)": 707206.2440208978,
        "Argument of Periapsis(deg)": 0.0009591680999264898,
        "Eccentricity": 0.0,
        "Inclination(deg)": 45.0,
        "Latitude(deg)": 44.70209972863077,
        "Longitude(deg)": -145.19018409473702,
        "Mean Anomaly(deg)": 82.7894182439984,
        "RAAN(deg)": 234.99909457335087,
        "Satellite Name": "Constellation 1 1039",
        "Satellite Number": 1039,
        "Semi-Major Axis(m)": 7083131.272910544,
        "Time(s)": 16
    },
    {
        "Altitude(m)": 707207.957641055,
        "Argument of Periapsis(deg)": 0.0010191161061718953,
        "Eccentricity": 0.0,
        "Inclination(deg)": 45.0,
        "Latitude(deg)": 44.70965066605916,
        "Longitude(deg)": -145.10972431789915,
        "Mean Anomaly(deg)": 82.85011938424827,
        "RAAN(deg)": 234.99903798418532,
        "Satellite Name": "Constellation 1 1039",
        "Satellite Number": 1039,
        "Semi-Major Axis(m)": 7083131.272910544,
        "Time(s)": 17
    },
    {
        "Altitude(m)": 707209.6572119638,
        "Argument of Periapsis(deg)": 0.001079064112417301,
        "Eccentricity": 0.0,
        "Inclination(deg)": 45.0,
        "Latitude(deg)": 44.71713898239413,
        "Longitude(deg)": -145.02924265408546,
        "Mean Anomaly(deg)": 82.91082052449822,
        "RAAN(deg)": 234.99898139501977,
        "Satellite Name": "Constellation 1 1039",
        "Satellite Number": 1039,
        "Semi-Major Axis(m)": 7083131.272910544,
        "Time(s)": 18
    }
]